[{"OBJECT_NAME":"STARLINK-34303","OBJECT_ID":"2025-112Y","EPOCH":"2026-03-09T16:47:04.114752","MEAN_MOTION":15.0564864,"ECCENTRICITY":7.256e-5,"INCLINATION":97.6038,"RA_OF_ASC_NODE":121.5956,"ARG_OF_PERICENTER":122.8854,"MEAN_ANOMALY":237.2443,"EPHEMERIS_TYPE":0,"CLASSIFICATION_TYPE":"U","NORAD_CAT_ID":64168,"ELEMENT_SET_NO":999,"REV_AT_EPOCH":4331,"BSTAR":8.3163124e-5,"MEAN_MOTION_DOT":1.139e-5,"MEAN_MOTION_DDOT":0},{"OBJECT_NAME":"CZ-6A R\/B","OBJECT_ID":"2022-031C","EPOCH":"2026-03-09T19:50:55.360896","MEAN_MOTION":15.07476837,"ECCENTRICITY":0.00174842,"INCLINATION":97.8104,"RA_OF_ASC_NODE":273.2347,"ARG_OF_PERICENTER":181.6412,"MEAN_ANOMALY":178.4761,"EPHEMERIS_TYPE":0,"CLASSIFICATION_TYPE":"U","NORAD_CAT_ID":52152,"ELEMENT_SET_NO":999,"REV_AT_EPOCH":21633,"BSTAR":0.00020233161,"MEAN_MOTION_DOT":3.012e-5,"MEAN_MOTION_DDOT":0}]
